start=new Date('2022-01-07T00:00:00.000Z').valueOf();
sats=[{"MEAN_MOTION_DOT":"0.00001623","GP_ID":"193352865","OBJECT_NAME":"STARLINK-1084","PERIAPSIS":"545.909","MEAN_ANOMALY":"292.3670","MEAN_MOTION_DDOT":"0.0000000000000","APOAPSIS":"548.543","FILE":"3265870","TLE_LINE2":"2 44915  53.0543 342.5883 0001902  67.7521 292.3670 15.06395861110339","TLE_LINE1":"1 44915U 20001B   22006.92179303  .00001623  00000-0  12787-3 0  9990","LAUNCH_DATE":"2020-01-07","REF_FRAME":"TEME","SEMIMAJOR_AXIS":"6925.361","COUNTRY_CODE":"US","MEAN_MOTION":"15.06395861","ECCENTRICITY":"0.00019020","OBJECT_TYPE":"PAYLOAD","CLASSIFICATION_TYPE":"U","TIME_SYSTEM":"UTC","PERIOD":"95.592","RCS_SIZE":"LARGE","REV_AT_EPOCH":"11033","ARG_OF_PERICENTER":"67.7521","NORAD_CAT_ID":"44915","EPOCH":"2022-01-06T22:07:22.917792","BSTAR":"0.00012787000000","RA_OF_ASC_NODE":"342.5883","OBJECT_ID":"2020-001B","EPHEMERIS_TYPE":"0","ELEMENT_SET_NO":"999","SITE":"AFETR","CENTER_NAME":"EARTH","DECAY_DATE":null,"INCLINATION":"53.0543","MEAN_ELEMENT_THEORY":"SGP4"},{"OBJECT_NAME":"STARLINK-1098","MEAN_ANOMALY":"293.5495","PERIAPSIS":"546.184","GP_ID":"193352615","MEAN_MOTION_DOT":"-0.00000106","MEAN_MOTION_DDOT":"0.0000000000000","APOAPSIS":"548.299","FILE":"3265870","TLE_LINE1":"1 44917U 20001D   22006.92548355 -.00000106  00000-0  11773-4 0  9990","TLE_LINE2":"2 44917  53.0528 342.5767 0001527  66.5655 293.5495 15.06390825110336","LAUNCH_DATE":"2020-01-07","CLASSIFICATION_TYPE":"U","PERIOD":"95.593","TIME_SYSTEM":"UTC","MEAN_MOTION":"15.06390825","COUNTRY_CODE":"US","REF_FRAME":"TEME","SEMIMAJOR_AXIS":"6925.377","OBJECT_TYPE":"PAYLOAD","ECCENTRICITY":"0.00015270","NORAD_CAT_ID":"44917","ARG_OF_PERICENTER":"66.5655","RA_OF_ASC_NODE":"342.5767","BSTAR":"0.00001177300000","EPOCH":"2022-01-06T22:12:41.778720","RCS_SIZE":"LARGE","REV_AT_EPOCH":"11033","OBJECT_ID":"2020-001D","DECAY_DATE":null,"MEAN_ELEMENT_THEORY":"SGP4","INCLINATION":"53.0528","EPHEMERIS_TYPE":"0","SITE":"AFETR","ELEMENT_SET_NO":"999","CENTER_NAME":"EARTH"},{"TLE_LINE2":"2 44918  53.0562 344.9197 0001679  71.2195 288.8976 15.06397390110995","TLE_LINE1":"1 44918U 20001E   22006.40575793 -.00000139  00000-0  95539-5 0  9999","LAUNCH_DATE":"2020-01-07","MEAN_MOTION_DOT":"-0.00000139","GP_ID":"193322212","OBJECT_NAME":"STARLINK-1099","MEAN_ANOMALY":"288.8976","PERIAPSIS":"546.059","MEAN_MOTION_DDOT":"0.0000000000000","APOAPSIS":"548.384","FILE":"3265629","OBJECT_ID":"2020-001E","EPHEMERIS_TYPE":"0","CENTER_NAME":"EARTH","SITE":"AFETR","ELEMENT_SET_NO":"999","DECAY_DATE":null,"INCLINATION":"53.0562","MEAN_ELEMENT_THEORY":"SGP4","REF_FRAME":"TEME","SEMIMAJOR_AXIS":"6925.357","MEAN_MOTION":"15.06397390","COUNTRY_CODE":"US","ECCENTRICITY":"0.00016790","OBJECT_TYPE":"PAYLOAD","CLASSIFICATION_TYPE":"U","TIME_SYSTEM":"UTC","PERIOD":"95.592","RCS_SIZE":"LARGE","REV_AT_EPOCH":"11099","ARG_OF_PERICENTER":"71.2195","NORAD_CAT_ID":"44918","EPOCH":"2022-01-06T09:44:17.485152","RA_OF_ASC_NODE":"344.9197","BSTAR":"0.00000955390000"},{"OBJECT_ID":"2020-001G","MEAN_ELEMENT_THEORY":"SGP4","INCLINATION":"53.0557","DECAY_DATE":null,"SITE":"AFETR","CENTER_NAME":"EARTH","ELEMENT_SET_NO":"999","EPHEMERIS_TYPE":"0","PERIOD":"95.592","TIME_SYSTEM":"UTC","CLASSIFICATION_TYPE":"U","OBJECT_TYPE":"PAYLOAD","ECCENTRICITY":"0.00014660","COUNTRY_CODE":"US","MEAN_MOTION":"15.06394757","REF_FRAME":"TEME","SEMIMAJOR_AXIS":"6925.365","BSTAR":"-0.00000003134000","RA_OF_ASC_NODE":"342.4592","EPOCH":"2022-01-06T22:49:50.822688","NORAD_CAT_ID":"44920","ARG_OF_PERICENTER":"60.8555","REV_AT_EPOCH":"11033","RCS_SIZE":"LARGE","TLE_LINE1":"1 44920U 20001G   22006.95128267 -.00000282  00000-0 -31340-7 0  9994","TLE_LINE2":"2 44920  53.0557 342.4592 0001466  60.8555 299.2581 15.06394757110332","LAUNCH_DATE":"2020-01-07","MEAN_ANOMALY":"299.2581","PERIAPSIS":"546.214","OBJECT_NAME":"STARLINK-1102","GP_ID":"193352114","MEAN_MOTION_DOT":"-0.00000282","FILE":"3265870","APOAPSIS":"548.245","MEAN_MOTION_DDOT":"0.0000000000000"},{"OBJECT_ID":"2020-001H","INCLINATION":"53.0499","MEAN_ELEMENT_THEORY":"SGP4","DECAY_DATE":null,"CENTER_NAME":"EARTH","SITE":"AFETR","ELEMENT_SET_NO":"999","EPHEMERIS_TYPE":"0","TIME_SYSTEM":"UTC","PERIOD":"95.592","CLASSIFICATION_TYPE":"U","ECCENTRICITY":"0.00020510","OBJECT_TYPE":"PAYLOAD","SEMIMAJOR_AXIS":"6925.358","REF_FRAME":"TEME","COUNTRY_CODE":"US","MEAN_MOTION":"15.06397055","EPOCH":"2022-01-06T21:46:08.650848","BSTAR":"0.00012736000000","RA_OF_ASC_NODE":"342.6615","ARG_OF_PERICENTER":"53.8287","NORAD_CAT_ID":"44921","REV_AT_EPOCH":"11030","RCS_SIZE":"LARGE","TLE_LINE1":"1 44921U 20001H   22006.90704457  .00001616  00000-0  12736-3 0  9995","TLE_LINE2":"2 44921  53.0499 342.6615 0002051  53.8287 306.2891 15.06397055110305","LAUNCH_DATE":"2020-01-07","PERIAPSIS":"545.802","MEAN_ANOMALY":"306.2891","OBJECT_NAME":"STARLINK-1103","MEAN_MOTION_DOT":"0.00001616","GP_ID":"193352365","APOAPSIS":"548.643","FILE":"3265870","MEAN_MOTION_DDOT":"0.0000000000000"},{"MEAN_MOTION_DOT":"0.00001019","GP_ID":"193353116","PERIAPSIS":"546.042","MEAN_ANOMALY":"289.6639","OBJECT_NAME":"STARLINK-1104","APOAPSIS":"548.401","FILE":"3265870","MEAN_MOTION_DDOT":"0.0000000000000","TLE_LINE2":"2 44922  53.0545 342.5034 0001703  70.4533 289.6639 15.06397287110338","TLE_LINE1":"1 44922U 20001J   22006.94021782  .00001019  00000-0  87303-4 0  9993","LAUNCH_DATE":"2020-01-07","ECCENTRICITY":"0.00017030","OBJECT_TYPE":"PAYLOAD","REF_FRAME":"TEME","SEMIMAJOR_AXIS":"6925.357","COUNTRY_CODE":"US","MEAN_MOTION":"15.06397287","TIME_SYSTEM":"UTC","PERIOD":"95.592","CLASSIFICATION_TYPE":"U","REV_AT_EPOCH":"11033","RCS_SIZE":"LARGE","EPOCH":"2022-01-06T22:33:54.819648","RA_OF_ASC_NODE":"342.5034","BSTAR":"0.00008730300000","ARG_OF_PERICENTER":"70.4533","NORAD_CAT_ID":"44922","OBJECT_ID":"2020-001J","ELEMENT_SET_NO":"999","SITE":"AFETR","CENTER_NAME":"EARTH","EPHEMERIS_TYPE":"0","INCLINATION":"53.0545","MEAN_ELEMENT_THEORY":"SGP4","DECAY_DATE":null},{"MEAN_MOTION_DDOT":"0.0000000000000","FILE":"3265870","APOAPSIS":"548.487","OBJECT_NAME":"STARLINK-1106","PERIAPSIS":"546.170","MEAN_ANOMALY":"288.4392","MEAN_MOTION_DOT":"0.00006116","GP_ID":"193351364","LAUNCH_DATE":"2020-01-07","TLE_LINE1":"1 44923U 20001K   22006.89968366  .00006116  00000-0  42957-3 0  9994","TLE_LINE2":"2 44923  53.0545 342.6867 0001673  71.6779 288.4392 15.06362410110327","ARG_OF_PERICENTER":"71.6779","NORAD_CAT_ID":"44923","EPOCH":"2022-01-06T21:35:32.668224","BSTAR":"0.00042957000000","RA_OF_ASC_NODE":"342.6867","RCS_SIZE":"LARGE","REV_AT_EPOCH":"11032","CLASSIFICATION_TYPE":"U","TIME_SYSTEM":"UTC","PERIOD":"95.595","SEMIMAJOR_AXIS":"6925.464","REF_FRAME":"TEME","MEAN_MOTION":"15.06362410","COUNTRY_CODE":"US","ECCENTRICITY":"0.00016730","OBJECT_TYPE":"PAYLOAD","DECAY_DATE":null,"INCLINATION":"53.0545","MEAN_ELEMENT_THEORY":"SGP4","EPHEMERIS_TYPE":"0","SITE":"AFETR","CENTER_NAME":"EARTH","ELEMENT_SET_NO":"999","OBJECT_ID":"2020-001K"},{"OBJECT_TYPE":"PAYLOAD","ECCENTRICITY":"0.00017990","COUNTRY_CODE":"US","MEAN_MOTION":"15.06388964","REF_FRAME":"TEME","SEMIMAJOR_AXIS":"6925.382","PERIOD":"95.593","TIME_SYSTEM":"UTC","CLASSIFICATION_TYPE":"U","REV_AT_EPOCH":"11032","RCS_SIZE":"LARGE","RA_OF_ASC_NODE":"342.7404","BSTAR":"-0.00000143320000","EPOCH":"2022-01-06T21:19:37.011648","NORAD_CAT_ID":"44924","ARG_OF_PERICENTER":"62.2760","OBJECT_ID":"2020-001L","SITE":"AFETR","ELEMENT_SET_NO":"999","CENTER_NAME":"EARTH","EPHEMERIS_TYPE":"0","MEAN_ELEMENT_THEORY":"SGP4","INCLINATION":"53.0550","DECAY_DATE":null,"GP_ID":"193351614","MEAN_MOTION_DOT":"-0.00000303","PERIAPSIS":"546.002","MEAN_ANOMALY":"297.8412","OBJECT_NAME":"STARLINK-1111","APOAPSIS":"548.493","FILE":"3265870","MEAN_MOTION_DDOT":"0.0000000000000","TLE_LINE2":"2 44924  53.0550 342.7404 0001799  62.2760 297.8412 15.06388964110326","TLE_LINE1":"1 44924U 20001L   22006.88862282 -.00000303  00000-0 -14332-5 0  9996","LAUNCH_DATE":"2020-01-07"},{"TLE_LINE1":"1 44925U 20001M   22006.90336295  .00001035  00000-0  88411-4 0  9999","TLE_LINE2":"2 44925  53.0553 342.6685 0001584  58.9412 301.1732 15.06391415110327","LAUNCH_DATE":"2020-01-07","PERIAPSIS":"546.143","MEAN_ANOMALY":"301.1732","OBJECT_NAME":"STARLINK-1112","MEAN_MOTION_DOT":"0.00001035","GP_ID":"193352866","APOAPSIS":"548.337","FILE":"3265870","MEAN_MOTION_DDOT":"0.0000000000000","OBJECT_ID":"2020-001M","INCLINATION":"53.0553","MEAN_ELEMENT_THEORY":"SGP4","DECAY_DATE":null,"ELEMENT_SET_NO":"999","SITE":"AFETR","CENTER_NAME":"EARTH","EPHEMERIS_TYPE":"0","TIME_SYSTEM":"UTC","PERIOD":"95.593","CLASSIFICATION_TYPE":"U","ECCENTRICITY":"0.00015840","OBJECT_TYPE":"PAYLOAD","SEMIMAJOR_AXIS":"6925.375","REF_FRAME":"TEME","MEAN_MOTION":"15.06391415","COUNTRY_CODE":"US","EPOCH":"2022-01-06T21:40:50.558880","RA_OF_ASC_NODE":"342.6685","BSTAR":"0.00008841100000","ARG_OF_PERICENTER":"58.9412","NORAD_CAT_ID":"44925","REV_AT_EPOCH":"11032","RCS_SIZE":"LARGE"},{"MEAN_ANOMALY":"292.9946","PERIAPSIS":"548.516","OBJECT_NAME":"STARLINK-1113","MEAN_MOTION_DOT":"-0.00000238","GP_ID":"193352616","FILE":"3265870","APOAPSIS":"550.971","MEAN_MOTION_DDOT":"0.0000000000000","TLE_LINE1":"1 44926U 20001N   22006.89180305 -.00000238  00000-0  28327-5 0  9993","TLE_LINE2":"2 44926  53.0006 342.7266 0001772  67.1229 292.9946 15.05574939111041","LAUNCH_DATE":"2020-01-07","TIME_SYSTEM":"UTC","PERIOD":"95.645","CLASSIFICATION_TYPE":"U","ECCENTRICITY":"0.00017720","OBJECT_TYPE":"PAYLOAD","REF_FRAME":"TEME","SEMIMAJOR_AXIS":"6927.878","MEAN_MOTION":"15.05574939","COUNTRY_CODE":"US","EPOCH":"2022-01-06T21:24:11.783520","BSTAR":"0.00000283270000","RA_OF_ASC_NODE":"342.7266","ARG_OF_PERICENTER":"67.1229","NORAD_CAT_ID":"44926","REV_AT_EPOCH":"11104","RCS_SIZE":"LARGE","OBJECT_ID":"2020-001N","INCLINATION":"53.0006","MEAN_ELEMENT_THEORY":"SGP4","DECAY_DATE":null,"SITE":"AFETR","CENTER_NAME":"EARTH","ELEMENT_SET_NO":"999","EPHEMERIS_TYPE":"0"}];
